QZS-1R                  
1 49336U 21096A   24104.29493775 -.00000251  00000+0  00000+0 0  9997
2 49336  35.8125  91.5065 0751853 270.2421  81.2629  1.00281631  9047
